[{"OBJECT_NAME":"STARLINK-5707","OBJECT_ID":"2023-083D","EPOCH":"2026-03-09T08:07:19.397280","MEAN_MOTION":15.02539003,"ECCENTRICITY":0.00018288,"INCLINATION":43.0047,"RA_OF_ASC_NODE":84.0238,"ARG_OF_PERICENTER":268.9861,"MEAN_ANOMALY":91.0772,"EPHEMERIS_TYPE":0,"CLASSIFICATION_TYPE":"U","NORAD_CAT_ID":56879,"ELEMENT_SET_NO":999,"REV_AT_EPOCH":15161,"BSTAR":2.8929964e-5,"MEAN_MOTION_DOT":1.87e-6,"MEAN_MOTION_DDOT":0},{"OBJECT_NAME":"THOR AGENA B DEB","OBJECT_ID":"1965-098J","EPOCH":"2026-03-09T15:55:33.898656","MEAN_MOTION":12.39065528,"ECCENTRICITY":0.1280637,"INCLINATION":79.7465,"RA_OF_ASC_NODE":159.9057,"ARG_OF_PERICENTER":252.7397,"MEAN_ANOMALY":243.9853,"EPHEMERIS_TYPE":0,"CLASSIFICATION_TYPE":"U","NORAD_CAT_ID":2153,"ELEMENT_SET_NO":999,"REV_AT_EPOCH":67470,"BSTAR":0.00058104,"MEAN_MOTION_DOT":1.819e-5,"MEAN_MOTION_DDOT":0}]
